NORAD_CAT_ID,OBJECT_NAME,OBJECT_TYPE,EPOCH,MEAN_MOTION,ECCENTRICITY,INCLINATION,RA_OF_ASC_NODE,ARG_OF_PERICENTER,MEAN_ANOMALY,BSTAR,MEAN_MOTION_DOT,MEAN_MOTION_DDOT,TLE_LINE0,TLE_LINE1,TLE_LINE2,SEMIMAJOR_AXIS,PERIOD,APOGEE,PERIGEE,DECAYED
52285.0,STARLINK-3775,PAYLOAD,2022-09-03 14:00:01,15.08822282,0.0002024,53.2178,109.2158,70.9686,251.8419,0.0023153,0.00036735,0.0,0 STARLINK-3775,1 52285U 22041AA  22246.58334491  .00036735  00000-0  23153-2 0  9994,2 52285  53.2178 109.2158 0002024  70.9686 251.8419 15.08822282  1302,6917.935,95.439,541.2,538.399,0.0
52285.0,STARLINK-3775,PAYLOAD,2022-09-03 22:00:00,15.08841987,0.0002139,53.2177,107.7213,65.9252,268.4798,-0.00016723,-2.949e-05,0.0,0 STARLINK-3775,1 52285U 22041AA  22246.91667824 -.00002949  00000-0 -16723-3 0  9998,2 52285  53.2177 107.7213 0002139  65.9252 268.4798 15.08841987  1303,6917.874,95.437,541.219,538.26,0.0
52285.0,STARLINK-3775,PAYLOAD,2022-09-04 14:00:01,15.08856093,0.0001975,53.2177,104.727,72.4202,285.259,-0.00077896,-0.0001267,0.0,0 STARLINK-3775,1 52285U 22041AA  22247.58335648 -.00012670  00000-0 -77896-3 0  9998,2 52285  53.2177 104.7270 0001975  72.4202 285.2590 15.08856093  1309,6917.831,95.437,541.062,538.33,0.0
52285.0,STARLINK-3775,PAYLOAD,2022-09-04 20:00:01,15.08846322,0.0002004,53.2175,103.6063,67.3282,209.0069,-0.00073808,-0.00012018,0.0,0 STARLINK-3775,1 52285U 22041AA  22247.83334491 -.00012018  00000-0 -73808-3 0  9996,2 52285  53.2175 103.6063 0002004  67.3282 209.0069 15.08846322 22076,6917.861,95.437,541.112,538.34,0.0
52285.0,STARLINK-3775,PAYLOAD,2022-09-05 14:00:01,15.08826262,0.0001810999999999,53.2175,100.2383,70.9541,321.4871,0.0018972,0.00030024,0.0,0 STARLINK-3775,1 52285U 22041AA  22248.58334491  .00030024  00000-0  18972-2 0  9994,2 52285  53.2175 100.2383 0001811  70.9541 321.4871 15.08826262  1301,6917.922,95.438,541.04,538.535,0.0
52285.0,STARLINK-3775,PAYLOAD,2022-09-05 22:00:00,15.08832774,0.0001892,53.2175,98.7438,63.8575,340.1738,-0.0019717,-0.00031525,0.0,0 STARLINK-3775,1 52285U 22041AA  22248.91667824 -.00031525  00000-0 -19717-2 0  9997,2 52285  53.2175  98.7438 0001892  63.8575 340.1738 15.08832774  1305,6917.901999999999,95.438,541.076,538.4590000000002,0.0
52285.0,STARLINK-3775,PAYLOAD,2022-09-06 12:00:00,15.08801112,0.0001749,53.2174,96.1233,69.221,265.0693,0.0031609999999999,0.00050325,0.0,0 STARLINK-3775,1 52285U 22041AA  22249.50001157  .00050325  00000-0  31610-2 0  9997,2 52285  53.2174  96.1233 0001749  69.2210 265.0693 15.08801112 22339,6917.999,95.44,541.0740000000002,538.654,0.0
52285.0,STARLINK-3775,PAYLOAD,2022-09-06 14:00:01,15.08821107,0.0001781,53.2176,95.7494,69.6931,357.4821,0.0014991,0.00023638,0.0,0 STARLINK-3775,1 52285U 22041AA  22249.58334491  .00023638  00000-0  14991-2 0  9995,2 52285  53.2176  95.7494 0001781  69.6931 357.4821 15.08821107  1304,6917.938,95.439,541.035,538.571,0.0
52285.0,STARLINK-3775,PAYLOAD,2022-09-06 22:00:00,15.08822769,0.0001905,53.2176,94.2549,62.8722,15.8872,0.00092523,0.00014461,0.0,0 STARLINK-3775,1 52285U 22041AA  22249.91667824  .00014461  00000-0  92523-3 0  9993,2 52285  53.2176  94.2549 0001905  62.8722  15.8872 15.08822769  1306,6917.933000000001,95.439,541.116,538.48,0.0
52285.0,STARLINK-3775,PAYLOAD,2022-09-07 06:00:00,15.0885946,0.0001774999999999,53.2177,92.7574,63.3714,26.967,-0.0045923,-0.00072677,0.0,0 STARLINK-3775,1 52285U 22041AA  22250.25001157 -.00072677  00000-0 -45923-2 0  9999,2 52285  53.2177  92.7574 0001775  63.3714  26.9670 15.08859460 22445,6917.821,95.436,540.914,538.4580000000002,0.0
52285.0,STARLINK-3775,PAYLOAD,2022-09-07 14:00:01,15.08816903,0.000173,53.2179,91.2603,67.9569,33.9666,0.00097186,0.00015203,0.0,0 STARLINK-3775,1 52285U 22041AA  22250.58334491  .00015203  00000-0  97186-3 0  9994,2 52285  53.2179  91.2603 0001730  67.9569  33.9666 15.08816903  1303,6917.951,95.439,541.013,538.619,0.0
52285.0,STARLINK-3775,PAYLOAD,2022-09-07 22:00:00,15.08810959,0.0001855999999999,53.2179,89.7658,61.0163,52.4837,0.0013932,0.00021937,0.0,0 STARLINK-3775,1 52285U 22041AA  22250.91667824  .00021937  00000-0  13932-2 0  9997,2 52285  53.2179  89.7658 0001856  61.0163  52.4837 15.08810959 22549,6917.969,95.439,541.118,538.55,0.0
52285.0,STARLINK-3775,PAYLOAD,2022-09-08 14:00:01,15.08841524,0.0001771999999999,53.2182,86.7713,68.2549,68.3999,0.00051012,7.840000000000001e-05,0.0,0 STARLINK-3775,1 52285U 22041AA  22251.58334491  .00007840  00000-0  51012-3 0  9991,2 52285  53.2182  86.7713 0001772  68.2549  68.3999 15.08841524  1304,6917.876,95.437,540.967,538.515,0.0
52285.0,STARLINK-3775,PAYLOAD,2022-09-08 22:00:00,15.08830086,0.0001864,53.2181,85.2765,60.6764,87.5842,0.0019335,0.0003061,0.0,0 STARLINK-3775,1 52285U 22041AA  22251.91667824  .00030610  00000-0  19335-2 0  9999,2 52285  53.2181  85.2765 0001864  60.6764  87.5842 15.08830086  1302,6917.911,95.438,541.065,538.486,0.0
52285.0,STARLINK-3775,PAYLOAD,2022-09-09 06:00:00,15.08868174,0.0001692,53.218,83.7788,63.7211,96.1364,-0.003817,-0.00060572,0.0,0 STARLINK-3775,1 52285U 22041AA  22252.25001157 -.00060572  00000-0 -38170-2 0  9998,2 52285  53.2180  83.7788 0001692  63.7211  96.1364 15.08868174 22744,6917.794,95.436,540.83,538.489,0.0
52285.0,STARLINK-3775,PAYLOAD,2022-09-09 14:00:01,15.08840486,0.0001654,53.2183,82.28200000000002,67.2383,104.219,0.00026132,3.873e-05,0.0,0 STARLINK-3775,1 52285U 22041AA  22252.58334491  .00003873  00000-0  26132-3 0  9999,2 52285  53.2183  82.2820 0001654  67.2383 104.2190 15.08840486  1308,6917.879,95.438,540.888,538.6,0.0
52285.0,STARLINK-3775,PAYLOAD,2022-09-09 22:00:00,15.08822896,0.0001756,53.2181,80.7872,58.9936,124.0656,0.0024322,0.00038615,0.0,0 STARLINK-3775,1 52285U 22041AA  22252.91667824  .00038615  00000-0  24322-2 0  9995,2 52285  53.2181  80.7872 0001756  58.9936 124.0656 15.08822896 22844,6917.933000000001,95.439,541.012,538.5830000000002,0.0
52285.0,STARLINK-3775,PAYLOAD,2022-09-10 14:00:01,15.08857831,0.0001549,53.2182,77.7928,67.2285,139.018,-0.0021879,-0.00034957,0.0,0 STARLINK-3775,1 52285U 22041AA  22253.58334491 -.00034957  00000-0 -21879-2 0  9991,2 52285  53.2182  77.7928 0001549  67.2285 139.0180 15.08857831 22949,6917.826,95.436,540.762,538.619,0.0
52285.0,STARLINK-3775,PAYLOAD,2022-09-10 22:00:00,15.08810807,0.0001636999999999,53.218,76.2978,57.8079,160.0424,0.0026414,0.00041967,0.0,0 STARLINK-3775,1 52285U 22041AA  22253.91667824  .00041967  00000-0  26414-2 0  9994,2 52285  53.2180  76.2978 0001637  57.8079 160.0424 15.08810807  1304,6917.97,95.439,540.967,538.702,0.0
52285.0,STARLINK-3775,PAYLOAD,2022-09-11 06:00:00,15.08837747,0.0001489,53.2178,74.7998,63.3816,166.0486,-0.00018629,-3.251e-05,0.0,0 STARLINK-3775,1 52285U 22041AA  22254.25001157 -.00003251  00000-0 -18629-3 0  9999,2 52285  53.2178  74.7998 0001489  63.3816 166.0486 15.08837747 23043,6917.887,95.438,540.7819999999998,538.722,0.0
52285.0,STARLINK-3775,PAYLOAD,2022-09-11 14:00:01,15.0885961,0.0001505,53.218,73.3036,67.0918,173.9333,-0.00047108,-7.781e-05,0.0,0 STARLINK-3775,1 52285U 22041AA  22254.58334491 -.00007781  00000-0 -47108-3 0  9991,2 52285  53.2180  73.3036 0001505  67.0918 173.9333 15.08859610  1303,6917.82,95.436,540.727,538.644,0.0
52285.0,STARLINK-3775,PAYLOAD,2022-09-11 22:00:00,15.08843089,0.0001571999999999,53.2178,71.8087,57.6014,195.0426,0.00016426,2.327e-05,0.0,0 STARLINK-3775,1 52285U 22041AA  22254.91667824  .00002327  00000-0  16426-3 0  9995,2 52285  53.2178  71.8087 0001572  57.6014 195.0426 15.08843089 23142,6917.871,95.437,540.823,538.648,0.0
52285.0,STARLINK-3775,PAYLOAD,2022-09-12 14:00:01,15.08859077,0.0001446,53.2178,68.8145,65.1664,210.6648,-0.00096401,-0.00015605,0.0,0 STARLINK-3775,1 52285U 22041AA  22255.58334491 -.00015605  00000-0 -96401-3 0  9996,2 52285  53.2178  68.8145 0001446  65.1664 210.6648 15.08859077  1306,6917.821999999999,95.436,540.687,538.687,0.0
52285.0,STARLINK-3775,PAYLOAD,2022-09-12 22:00:00,15.08827057,0.0001614,53.2177,67.3195,57.1952,230.2525,0.00089385,0.00013961,0.0,0 STARLINK-3775,1 52285U 22041AA  22255.91667824  .00013961  00000-0  89385-3 0  9996,2 52285  53.2177  67.3195 0001614  57.1952 230.2525 15.08827057  1307,6917.92,95.438,540.9019999999998,538.668,0.0
52285.0,STARLINK-3775,PAYLOAD,2022-09-13 06:00:00,15.08822888,0.0001527,53.2178,65.8214,63.4522,235.5858,0.001232,0.00019364,0.0,0 STARLINK-3775,1 52285U 22041AA  22256.25001157  .00019364  00000-0  12320-2 0  9992,2 52285  53.2178  65.8214 0001527  63.4522 235.5858 15.08822888 23341,6917.933000000001,95.439,540.854,538.741,0.0
52285.0,STARLINK-3775,PAYLOAD,2022-09-13 14:00:01,15.08868097,0.0001537,53.218,64.3255,64.1673,246.4463,-0.0034095999999999,-0.00054185,0.0,0 STARLINK-3775,1 52285U 22041AA  22256.58334491 -.00054185  00000-0 -34096-2 0  9994,2 52285  53.2180  64.3255 0001537  64.1673 246.4463 15.08868097  1306,6917.795,95.436,540.7230000000002,538.596,0.0
52285.0,STARLINK-3775,PAYLOAD,2022-09-13 22:00:00,15.08797565,0.0001591,53.218,62.8305,54.6783,267.5388,0.0028831,0.00045842,0.0,0 STARLINK-3775,1 52285U 22041AA  22256.91667824  .00045842  00000-0  28831-2 0  9998,2 52285  53.2180  62.8305 0001591  54.6783 267.5388 15.08797565 23441,6918.01,95.44,540.976,538.774,0.0
52285.0,STARLINK-3775,PAYLOAD,2022-09-14 14:00:01,15.08837103,0.0001548,53.2175,59.8211,61.6788,283.6668,-1.8383e-05,-5.81e-06,0.0,0 STARLINK-3775,1 52285U 22041AA  22257.58334491 -.00000581  00000-0 -18383-4 0  9999,2 52285  53.2175  59.8211 0001548  61.6788 283.6668 15.08837103 23557,6917.889,95.438,540.825,538.683,0.0
52285.0,STARLINK-3775,PAYLOAD,2022-09-14 22:00:00,15.08833313,0.0001685,53.2186,58.3416,53.4577,303.5145,0.0021481,0.00034058,0.0,0 STARLINK-3775,1 52285U 22041AA  22257.91667824  .00034058  00000-0  21481-2 0  9990,2 52285  53.2186  58.3416 0001685  53.4577 303.5145 15.08833313 23604,6917.901,95.438,540.931,538.6,0.0
